ONEWEB-0311             
1 49097U 21075Y   26040.97863733  .00000048  00000+0  90322-4 0  9993
2 49097  87.9111  31.1249 0002137  78.3273 281.8098 13.17650401216879
ONEWEB-0312             
1 49098U 21075Z   26040.99381949 -.00000047  00000+0 -15486-3 0  9998
2 49098  87.9103  31.1425 0002259  88.8982 271.2408 13.17648358216859
ONEWEB-0313             
1 49099U 21075AA  26040.46719153  .00000065  00000+0  13492-3 0  9996
2 49099  87.9098  31.2535 0001989  84.6468 275.4891 13.17647699216778
ONEWEB-0314             
1 49100U 21075AB  26040.96513453  .00000057  00000+0  11481-3 0  9996
2 49100  87.9113  31.1144 0002286  87.6478 272.4915 13.17648480216817
ONEWEB-0315             
1 49101U 21075AC  26040.96867826 -.00000065  00000+0 -21529-3 0  9998
2 49101  87.8960  15.8916 0002041  73.0156 287.1196 13.12444076218483
ONEWEB-0316             
1 49102U 21075AD  26040.83811792 -.00000026  00000+0 -98498-4 0  9993
2 49102  87.9213   0.7471 0001918  79.2027 280.9321 13.18686877220423
ONEWEB-0317             
1 49103U 21075AE  26040.97206397  .00000124  00000+0  30949-3 0  9991
2 49103  87.8958  15.9124 0001716 107.7774 252.3542 13.12443069218506
ONEWEB-0318             
1 49104U 21075AF  26040.83481344  .00000024  00000+0  28469-4 0  9998
2 49104  87.9225   0.7377 0002090  75.1887 284.9477 13.18687527220388
ONEWEB-0319             
1 49105U 21075AG  26040.98032413  .00000029  00000+0  42286-4 0  9992
2 49105  87.9100  31.1390 0002153  70.9064 289.2300 13.17651670216853
ONEWEB-0323             
1 49106U 21075AH  26040.95342337 -.00000375  00000+0 -10789-2 0  9996
2 49106  87.8959  15.8987 0002418  73.2557 286.8837 13.12442888217867
ONEWEB-0329             
1 49107U 21075AJ  26040.98874757 -.00000147  00000+0 -41104-3 0  9999
2 49107  87.9096  31.1384 0002017  87.6790 272.4573 13.17648459216837
ONEWEB-0330             
1 49108U 21075AK  26040.98959226  .00000002  00000+0 -28958-4 0  9997
2 49108  87.9100  31.1456 0002111  94.4049 265.7324 13.17647210216879
ONEWEB-0292             
1 49186U 21083A   26040.87278606 -.00000203  00000+0 -59208-3 0  9991
2 49186  87.9020 345.5598 0001949  74.0984 286.0360 13.13471690214210
ONEWEB-0303             
1 49187U 21083B   26040.83150776  .00000040  00000+0  68710-4 0  9991
2 49187  87.9227   0.7403 0001991  76.6836 283.4518 13.18687764213194
ONEWEB-0306             
1 49188U 21083C   26040.89747919 -.00000193  00000+0 -52333-3 0  9993
2 49188  87.9225   0.7108 0001756  88.7023 271.4310 13.18685309213242
ONEWEB-0307             
1 49189U 21083D   26040.86686977 -.00000234  00000+0 -67516-3 0  9992
2 49189  87.9023 345.5504 0001842  80.9496 279.1841 13.13470769214212
ONEWEB-0320             
1 49190U 21083E   26040.82903846 -.00000009  00000+0 -55022-4 0  9997
2 49190  87.9218   0.7497 0001895  80.2784 279.8562 13.18687727213194
