[{"OBJECT_NAME":"ONEWEB-0311","OBJECT_ID":"2021-075Y","EPOCH":"2026-02-09T23:29:14.265312","MEAN_MOTION":13.17650401,"ECCENTRICITY":0.0002137,"INCLINATION":87.9111,"RA_OF_ASC_NODE":31.1249,"ARG_OF_PERICENTER":78.3273,"MEAN_ANOMALY":281.8098,"EPHEMERIS_TYPE":0,"CLASSIFICATION_TYPE":"U","NORAD_CAT_ID":49097,"ELEMENT_SET_NO":999,"REV_AT_EPOCH":21687,"BSTAR":9.0322e-5,"MEAN_MOTION_DOT":4.8e-7,"MEAN_MOTION_DDOT":0},{"OBJECT_NAME":"ONEWEB-0312","OBJECT_ID":"2021-075Z","EPOCH":"2026-02-09T23:51:06.003936","MEAN_MOTION":13.17648358,"ECCENTRICITY":0.0002259,"INCLINATION":87.9103,"RA_OF_ASC_NODE":31.1425,"ARG_OF_PERICENTER":88.8982,"MEAN_ANOMALY":271.2408,"EPHEMERIS_TYPE":0,"CLASSIFICATION_TYPE":"U","NORAD_CAT_ID":49098,"ELEMENT_SET_NO":999,"REV_AT_EPOCH":21685,"BSTAR":-0.00015486,"MEAN_MOTION_DOT":-4.7e-7,"MEAN_MOTION_DDOT":0},{"OBJECT_NAME":"ONEWEB-0313","OBJECT_ID":"2021-075AA","EPOCH":"2026-02-09T11:12:45.348192","MEAN_MOTION":13.17647699,"ECCENTRICITY":0.00019891,"INCLINATION":87.9098,"RA_OF_ASC_NODE":31.2535,"ARG_OF_PERICENTER":84.6468,"MEAN_ANOMALY":275.4891,"EPHEMERIS_TYPE":0,"CLASSIFICATION_TYPE":"U","NORAD_CAT_ID":49099,"ELEMENT_SET_NO":999,"REV_AT_EPOCH":21677,"BSTAR":0.00013491647,"MEAN_MOTION_DOT":6.5e-7,"MEAN_MOTION_DDOT":0},{"OBJECT_NAME":"ONEWEB-0314","OBJECT_ID":"2021-075AB","EPOCH":"2026-02-09T23:09:47.623392","MEAN_MOTION":13.1764848,"ECCENTRICITY":0.0002286,"INCLINATION":87.9113,"RA_OF_ASC_NODE":31.1144,"ARG_OF_PERICENTER":87.6478,"MEAN_ANOMALY":272.4915,"EPHEMERIS_TYPE":0,"CLASSIFICATION_TYPE":"U","NORAD_CAT_ID":49100,"ELEMENT_SET_NO":999,"REV_AT_EPOCH":21681,"BSTAR":0.00011481,"MEAN_MOTION_DOT":5.7e-7,"MEAN_MOTION_DDOT":0},{"OBJECT_NAME":"ONEWEB-0315","OBJECT_ID":"2021-075AC","EPOCH":"2026-02-09T23:14:53.801664","MEAN_MOTION":13.12444076,"ECCENTRICITY":0.0002041,"INCLINATION":87.896,"RA_OF_ASC_NODE":15.8916,"ARG_OF_PERICENTER":73.0156,"MEAN_ANOMALY":287.1196,"EPHEMERIS_TYPE":0,"CLASSIFICATION_TYPE":"U","NORAD_CAT_ID":49101,"ELEMENT_SET_NO":999,"REV_AT_EPOCH":21848,"BSTAR":-0.00021529,"MEAN_MOTION_DOT":-6.5e-7,"MEAN_MOTION_DDOT":0},{"OBJECT_NAME":"ONEWEB-0316","OBJECT_ID":"2021-075AD","EPOCH":"2026-02-09T20:06:53.388288","MEAN_MOTION":13.18686877,"ECCENTRICITY":0.00019183,"INCLINATION":87.9213,"RA_OF_ASC_NODE":0.7471,"ARG_OF_PERICENTER":79.2027,"MEAN_ANOMALY":280.9321,"EPHEMERIS_TYPE":0,"CLASSIFICATION_TYPE":"U","NORAD_CAT_ID":49102,"ELEMENT_SET_NO":999,"REV_AT_EPOCH":22042,"BSTAR":-9.8497768e-5,"MEAN_MOTION_DOT":-2.6e-7,"MEAN_MOTION_DDOT":0},{"OBJECT_NAME":"ONEWEB-0317","OBJECT_ID":"2021-075AE","EPOCH":"2026-02-09T23:19:46.327008","MEAN_MOTION":13.12443069,"ECCENTRICITY":0.0001716,"INCLINATION":87.8958,"RA_OF_ASC_NODE":15.9124,"ARG_OF_PERICENTER":107.7774,"MEAN_ANOMALY":252.3542,"EPHEMERIS_TYPE":0,"CLASSIFICATION_TYPE":"U","NORAD_CAT_ID":49103,"ELEMENT_SET_NO":999,"REV_AT_EPOCH":21850,"BSTAR":0.00030949,"MEAN_MOTION_DOT":1.24e-6,"MEAN_MOTION_DDOT":0},{"OBJECT_NAME":"ONEWEB-0318","OBJECT_ID":"2021-075AF","EPOCH":"2026-02-09T20:02:07.881216","MEAN_MOTION":13.18687527,"ECCENTRICITY":0.00020905,"INCLINATION":87.9225,"RA_OF_ASC_NODE":0.7377,"ARG_OF_PERICENTER":75.1887,"MEAN_ANOMALY":284.9477,"EPHEMERIS_TYPE":0,"CLASSIFICATION_TYPE":"U","NORAD_CAT_ID":49104,"ELEMENT_SET_NO":999,"REV_AT_EPOCH":22038,"BSTAR":2.8468878e-5,"MEAN_MOTION_DOT":2.4e-7,"MEAN_MOTION_DDOT":0},{"OBJECT_NAME":"ONEWEB-0319","OBJECT_ID":"2021-075AG","EPOCH":"2026-02-09T23:31:40.004832","MEAN_MOTION":13.1765167,"ECCENTRICITY":0.0002153,"INCLINATION":87.91,"RA_OF_ASC_NODE":31.139,"ARG_OF_PERICENTER":70.9064,"MEAN_ANOMALY":289.23,"EPHEMERIS_TYPE":0,"CLASSIFICATION_TYPE":"U","NORAD_CAT_ID":49105,"ELEMENT_SET_NO":999,"REV_AT_EPOCH":21685,"BSTAR":4.2286e-5,"MEAN_MOTION_DOT":2.9e-7,"MEAN_MOTION_DDOT":0},{"OBJECT_NAME":"ONEWEB-0323","OBJECT_ID":"2021-075AH","EPOCH":"2026-02-09T22:52:55.779168","MEAN_MOTION":13.12442888,"ECCENTRICITY":0.0002418,"INCLINATION":87.8959,"RA_OF_ASC_NODE":15.8987,"ARG_OF_PERICENTER":73.2557,"MEAN_ANOMALY":286.8837,"EPHEMERIS_TYPE":0,"CLASSIFICATION_TYPE":"U","NORAD_CAT_ID":49106,"ELEMENT_SET_NO":999,"REV_AT_EPOCH":21786,"BSTAR":-0.0010789,"MEAN_MOTION_DOT":-3.75e-6,"MEAN_MOTION_DDOT":0},{"OBJECT_NAME":"ONEWEB-0329","OBJECT_ID":"2021-075AJ","EPOCH":"2026-02-09T23:43:47.790048","MEAN_MOTION":13.17648459,"ECCENTRICITY":0.0002017,"INCLINATION":87.9096,"RA_OF_ASC_NODE":31.1384,"ARG_OF_PERICENTER":87.679,"MEAN_ANOMALY":272.4573,"EPHEMERIS_TYPE":0,"CLASSIFICATION_TYPE":"U","NORAD_CAT_ID":49107,"ELEMENT_SET_NO":999,"REV_AT_EPOCH":21683,"BSTAR":-0.00041104,"MEAN_MOTION_DOT":-1.47e-6,"MEAN_MOTION_DDOT":0},{"OBJECT_NAME":"ONEWEB-0330","OBJECT_ID":"2021-075AK","EPOCH":"2026-02-09T23:45:00.771264","MEAN_MOTION":13.1764721,"ECCENTRICITY":0.0002111,"INCLINATION":87.91,"RA_OF_ASC_NODE":31.1456,"ARG_OF_PERICENTER":94.4049,"MEAN_ANOMALY":265.7324,"EPHEMERIS_TYPE":0,"CLASSIFICATION_TYPE":"U","NORAD_CAT_ID":49108,"ELEMENT_SET_NO":999,"REV_AT_EPOCH":21687,"BSTAR":-2.8958e-5,"MEAN_MOTION_DOT":2.0e-8,"MEAN_MOTION_DDOT":0},{"OBJECT_NAME":"ONEWEB-0292","OBJECT_ID":"2021-083A","EPOCH":"2026-02-09T20:56:48.715584","MEAN_MOTION":13.1347169,"ECCENTRICITY":0.0001949,"INCLINATION":87.902,"RA_OF_ASC_NODE":345.5598,"ARG_OF_PERICENTER":74.0984,"MEAN_ANOMALY":286.036,"EPHEMERIS_TYPE":0,"CLASSIFICATION_TYPE":"U","NORAD_CAT_ID":49186,"ELEMENT_SET_NO":999,"REV_AT_EPOCH":21421,"BSTAR":-0.00059208,"MEAN_MOTION_DOT":-2.03e-6,"MEAN_MOTION_DDOT":0},{"OBJECT_NAME":"ONEWEB-0303","OBJECT_ID":"2021-083B","EPOCH":"2026-02-09T19:57:22.270464","MEAN_MOTION":13.18687764,"ECCENTRICITY":0.00019911,"INCLINATION":87.9227,"RA_OF_ASC_NODE":0.7403,"ARG_OF_PERICENTER":76.6836,"MEAN_ANOMALY":283.4518,"EPHEMERIS_TYPE":0,"CLASSIFICATION_TYPE":"U","NORAD_CAT_ID":49187,"ELEMENT_SET_NO":999,"REV_AT_EPOCH":21319,"BSTAR":6.8710246e-5,"MEAN_MOTION_DOT":4.0e-7,"MEAN_MOTION_DDOT":0},{"OBJECT_NAME":"ONEWEB-0306","OBJECT_ID":"2021-083C","EPOCH":"2026-02-09T21:32:22.202016","MEAN_MOTION":13.18685309,"ECCENTRICITY":0.0001756,"INCLINATION":87.9225,"RA_OF_ASC_NODE":0.7108,"ARG_OF_PERICENTER":88.7023,"MEAN_ANOMALY":271.431,"EPHEMERIS_TYPE":0,"CLASSIFICATION_TYPE":"U","NORAD_CAT_ID":49188,"ELEMENT_SET_NO":999,"REV_AT_EPOCH":21324,"BSTAR":-0.00052333,"MEAN_MOTION_DOT":-1.93e-6,"MEAN_MOTION_DDOT":0},{"OBJECT_NAME":"ONEWEB-0307","OBJECT_ID":"2021-083D","EPOCH":"2026-02-09T20:48:17.548128","MEAN_MOTION":13.13470769,"ECCENTRICITY":0.0001842,"INCLINATION":87.9023,"RA_OF_ASC_NODE":345.5504,"ARG_OF_PERICENTER":80.9496,"MEAN_ANOMALY":279.1841,"EPHEMERIS_TYPE":0,"CLASSIFICATION_TYPE":"U","NORAD_CAT_ID":49189,"ELEMENT_SET_NO":999,"REV_AT_EPOCH":21421,"BSTAR":-0.00067516,"MEAN_MOTION_DOT":-2.34e-6,"MEAN_MOTION_DDOT":0},{"OBJECT_NAME":"ONEWEB-0320","OBJECT_ID":"2021-083E","EPOCH":"2026-02-09T19:53:48.922944","MEAN_MOTION":13.18687727,"ECCENTRICITY":0.0001895,"INCLINATION":87.9218,"RA_OF_ASC_NODE":0.7497,"ARG_OF_PERICENTER":80.2784,"MEAN_ANOMALY":279.8562,"EPHEMERIS_TYPE":0,"CLASSIFICATION_TYPE":"U","NORAD_CAT_ID":49190,"ELEMENT_SET_NO":999,"REV_AT_EPOCH":21319,"BSTAR":-5.502221e-5,"MEAN_MOTION_DOT":-9.0e-8,"MEAN_MOTION_DDOT":0}]
